OBJECT_NAME,OBJECT_ID,EPOCH,MEAN_MOTION,ECCENTRICITY,INCLINATION,RA_OF_ASC_NODE,ARG_OF_PERICENTER,MEAN_ANOMALY,EPHEMERIS_TYPE,CLASSIFICATION_TYPE,NORAD_CAT_ID,ELEMENT_SET_NO,REV_AT_EPOCH,BSTAR,MEAN_MOTION_DOT,MEAN_MOTION_DDOT
SPACEMOBILE-004,2024-163E,2026-07-20T06:54:23.132736,15.20670628,.0005406,52.9728,156.7022,240.1803,119.8654,0,U,61049,999,10280,.54287E-3,.11771E-3,0
CZ-8A R/B,2025-231K,2026-07-20T09:10:27.929280,14.30163075,.0116538,50.0032,258.0904,340.8790,18.7770,0,U,66004,999,3969,.23312E-4,-.1E-5,0
SZ-21 MODULE,2025-246C,2026-07-19T22:32:34.099584,15.79140397,.0009191,41.4720,102.9079,250.3291,109.6563,0,U,66515,999,3891,.18664827E-3,.34255E-3,0
SPACEMOBILE-006,2025-309A,2026-07-20T08:15:28.381536,15.18671763,.00095935,52.9942,179.7458,233.1495,126.8619,0,U,67232,999,3163,.10373706E-3,.1858E-4,0
SPACEMOBILE-008,2026-139A,2026-07-20T21:36:45.202752,15.12808185,.00052595,52.9952,109.5048,70.1086,290.0472,0,U,69589,999,508,.34862622E-4,.318E-5,0
SPACEMOBILE-009,2026-139B,2026-07-20T21:40:09.073920,15.12707117,.00055559,52.9943,109.5135,66.3129,293.8445,0,U,69590,999,508,.81933873E-4,.115E-4,0
SPACEMOBILE-010,2026-139C,2026-07-20T21:45:31.439232,15.12543979,.00055394,52.9949,109.5396,58.9891,301.1643,0,U,69591,999,509,.79124741E-4,.1095E-4,0
